JUPITER 3 (ECHOSTAR 24) 
1 57479U 23108A   26201.43605201 -.00000151  00000+0  00000+0 0  9994
2 57479   0.0155  49.0374 0001139  68.1752 242.7834  1.00271716 10977
GALAXY 37 (G-37)        
1 57493U 23112A   26202.27892093  .00000049  00000+0  00000+0 0  9990
2 57493   0.0194  59.8236 0002073  57.5353 155.0885  1.00272751 10881
LUDI TANCE-4 01A        
1 57624U 23120A   26200.93101191 -.00000178  00000+0  00000+0 0  9992
2 57624  15.0837 193.1551 0001652  11.3795 157.9203  1.00275287 10870
TJS-10                  
1 58204U 23169A   26201.70793352 -.00000252  00000+0  00000+0 0  9995
2 58204   2.6287  80.0907 0004103 112.4238  93.2304  1.00272677  9876
ZHONGXING-6E            
1 58253U 23172A   26200.35779580 -.00000366  00000+0  00000+0 0  9996
2 58253   0.0313  91.9638 0002926  19.0453  70.4510  1.00269836  9987
YAOGAN-41               
1 58582U 23197A   26202.28430074 -.00000358  00000+0  00000+0 0  9995
2 58582   3.0674 313.6862 0014060 200.2559  10.6097  1.00274683  9668
OVZON-3                 
1 58698U 24003A   26202.20044318  .00000053  00000+0  00000+0 0  9995
2 58698   0.0219 157.4807 0000407 238.2185  35.0987  1.00268666  7781
INSAT-3DS               
1 58990U 24033A   26202.15808644 -.00000155  00000+0  00000+0 0  9991
2 58990   0.0753 263.6633 0001318 219.7720 314.4469  1.00270782 47401
MERAH PUTIH 2           
1 58995U 24035A   26202.28222073  .00000000  00000+0  00000+0 0  9996
2 58995   0.0225  66.5099 0001324  48.5822  38.5124  1.00269186  8937
TJS-11                  
1 59020U 24037A   26202.42476611 -.00000359  00000+0  00000+0 0  9991
2 59020   4.1548 327.5145 0002094 155.9226  81.2444  1.00271558  8923
HULIANWAN GAOGUI-01 (H*)
1 59069U 24040A   26202.19524316  .00000157  00000+0  00000+0 0  9993
2 59069   0.0749 332.7155 0001567  77.5948 352.5714  1.00266814  7660
EUTELSAT 36D            
1 59346U 24059A   26202.19567649  .00000000  00000+0  00000+0 0  9994
2 59346   0.0216  60.7697 0000146  12.2501 332.2476  1.00268827  8486
PAKSAT-MM1              
1 59915U 24104A   26202.26748733  .00000154  00000+0  00000+0 0  9990
2 59915   0.0325 176.6357 0002295 287.6169 329.2882  1.00277179  7862
ASTRA 1P (SES-24)       
1 60086U 24115A   26202.26367398  .00000121  00000+0  00000+0 0  9991
2 60086   0.0687 326.3123 0000935 219.7675 227.0709  1.00270514  7539
GOES 19                 
1 60133U 24119A   26202.24504056 -.00000247  00000+0  00000+0 0  9990
2 60133   0.0192 134.5980 0000307  46.8520 130.5766  1.00272436  7305
TURKSAT 6A              
1 60233U 24127A   26202.19688983  .00000147  00000+0  00000+0 0  9994
2 60233   0.0436 220.5584 0003113 306.3395 244.9114  1.00273861  7350
HULIANWAN GAOGUI-02 (H*)
1 60327U 24135A   26202.17614492 -.00000174  00000+0  00000+0 0  9990
2 60327   0.0480 355.1944 0006202  15.8185 144.3688  1.00270729  7842
ZHONGXING-4A            
1 60606U 24151A   26202.28334740 -.00000360  00000+0  00000+0 0  9992
2 60606   1.2277 270.4200 0000022 330.9506 277.9013  1.00272716  7095
HULIANWAN GAOGUI-03 (H*)
1 61503U 24181A   26202.17331639 -.00000240  00000+0  00000+0 0  9991
2 61503   0.0525 357.5711 0001302  93.5896 193.0031  1.00267107  7169
DSN-3 (KIRAMEKI-3)      
1 61733U 24198A   26202.18169648 -.00000249  00000+0  00000+0 0  9993
2 61733   0.0371 239.7407 0001128 259.4458   9.2296  1.00271098  6264
KOREASAT 6A             
1 61910U 24206A   26202.11155734 -.00000361  00000+0  00000+0 0  9999
2 61910   0.0276 102.0417 0001059 340.7952  12.2140  1.00272700  6188
OPTUS-X (ADS-01)        
1 62006U 24212A   26202.29178509 -.00000141  00000+0  00000+0 0  9993
2 62006   0.0437 256.1518 0002206 243.5412  60.8085  1.00275899  6104
GSAT-N2 (GSAT-20)       
1 62028U 24214A   26202.20208986 -.00000019  00000+0  00000+0 0  9997
2 62028   0.0592 259.8023 0002722 151.7658  28.0817  1.00272691  6236
SXM-9                   
1 62259U 24234A   26202.23933683 -.00000204  00000+0  00000+0 0  9993
2 62259   0.0203 329.8912 0004745 351.5151 338.5870  1.00271274  5919
TJS-12                  
1 62374U 24246A   26202.21760325 -.00000231  00000+0  00000+0 0  9993
2 62374   0.5986 302.8333 0001944 103.8613 117.0781  1.00268133  5907
NUVIEW ALPHA            
1 62455U 24252B   26202.24348054 -.00000214  00000+0  00000+0 0  9995
2 62455   0.0405  22.0886 0001301  72.7221 208.7511  1.00271780  4166
AGILA                   
1 62456U 24252C   26201.86229769 -.00000182  00000+0  00000+0 0  9998
2 62456   0.0380 147.1606 0001448 334.4724 279.5863  1.00271354  5496
NUVIEW BRAVO            
1 62457U 24252D   26202.24348054 -.00000214  00000+0  00000+0 0  9997
2 62457   0.0678 165.6313 0001785 340.0484 157.8726  1.00272415  4132
THURAYA-4               
1 62483U 25001A   26202.26870067  .00000140  00000+0  00000+0 0  9992
2 62483   0.0215  77.5646 0000260  72.3689 290.1415  1.00272460  4515
SHIJIAN-25 (SJ-25)      
1 62485U 25002A   26201.68125779 -.00000354  00000+0  00000+0 0  9991
2 62485   5.1911  60.9512 0050815 176.6989  73.1922  1.00277224  5691
