OBJECT_NAME,OBJECT_ID,EPOCH,MEAN_MOTION,ECCENTRICITY,INCLINATION,RA_OF_ASC_NODE,ARG_OF_PERICENTER,MEAN_ANOMALY,EPHEMERIS_TYPE,CLASSIFICATION_TYPE,NORAD_CAT_ID,ELEMENT_SET_NO,REV_AT_EPOCH,BSTAR,MEAN_MOTION_DOT,MEAN_MOTION_DDOT
JUPITER 3 (ECHOSTAR 24),2023-108A,2026-07-20T10:27:54.893664,1.00271716,.0001139,0.0155,49.0374,68.1752,242.7834,0,U,57479,999,1097,0,-.151E-5,0
GALAXY 37 (G-37),2023-112A,2026-07-21T06:41:38.768352,1.00272751,.00020739,0.0194,59.8236,57.5353,155.0885,0,U,57493,999,1088,0,.49E-6,0
LUDI TANCE-4 01A,2023-120A,2026-07-19T22:20:39.429024,1.00275287,.00016523,15.0837,193.1551,11.3795,157.9203,0,U,57624,999,1087,0,-.178E-5,0
TJS-10,2023-169A,2026-07-20T16:59:25.456128,1.00272677,.0004103,2.6287,80.0907,112.4238,93.2304,0,U,58204,999,987,0,-.252E-5,0
ZHONGXING-6E,2023-172A,2026-07-19T08:35:13.557120,1.00269836,.00029267,0.0313,91.9638,19.0453,70.4510,0,U,58253,999,998,0,-.366E-5,0
YAOGAN-41,2023-197A,2026-07-21T06:49:23.583936,1.00274683,.00140601,3.0674,313.6862,200.2559,10.6097,0,U,58582,999,966,0,-.358E-5,0
OVZON-3,2024-003A,2026-07-21T04:48:38.290752,1.00268666,.00004076,0.0219,157.4807,238.2185,35.0987,0,U,58698,999,778,0,.53E-6,0
INSAT-3DS,2024-033A,2026-07-21T03:47:38.668416,1.00270782,.00013183,0.0753,263.6633,219.7720,314.4469,0,U,58990,999,4740,0,-.155E-5,0
MERAH PUTIH 2,2024-035A,2026-07-21T06:46:23.871072,1.00269186,.00013243,0.0225,66.5099,48.5822,38.5124,0,U,58995,999,893,0,0,0
TJS-11,2024-037A,2026-07-21T10:11:39.791904,1.00271558,.0002094,4.1548,327.5145,155.9226,81.2444,0,U,59020,999,892,0,-.359E-5,0
HULIANWAN GAOGUI-01 (HG-01),2024-040A,2026-07-21T04:41:09.009024,1.00266814,.00015676,0.0749,332.7155,77.5948,352.5714,0,U,59069,999,766,0,.157E-5,0
EUTELSAT 36D,2024-059A,2026-07-21T04:41:46.448736,1.00268827,.00001467,0.0216,60.7697,12.2501,332.2476,0,U,59346,999,848,0,0,0
PAKSAT-MM1,2024-104A,2026-07-21T06:25:10.905312,1.00277179,.00022957,0.0325,176.6357,287.6169,329.2882,0,U,59915,999,786,0,.154E-5,0
ASTRA 1P (SES-24),2024-115A,2026-07-21T06:19:41.431872,1.00270514,.00009356,0.0687,326.3123,219.7675,227.0709,0,U,60086,999,753,0,.121E-5,0
GOES 19,2024-119A,2026-07-21T05:52:51.504384,1.00272436,.00003075,0.0192,134.5980,46.8520,130.5766,0,U,60133,999,730,0,-.247E-5,0
TURKSAT 6A,2024-127A,2026-07-21T04:43:31.281312,1.00273861,.00031133,0.0436,220.5584,306.3395,244.9114,0,U,60233,999,735,0,.147E-5,0
HULIANWAN GAOGUI-02 (HG-02),2024-135A,2026-07-21T04:13:38.921088,1.00270729,.00062025,0.0480,355.1944,15.8185,144.3688,0,U,60327,999,784,0,-.174E-5,0
ZHONGXING-4A,2024-151A,2026-07-21T06:48:01.215360,1.00272716,.00000227,1.2277,270.4200,330.9506,277.9013,0,U,60606,999,709,0,-.36E-5,0
HULIANWAN GAOGUI-03 (HG-03),2024-181A,2026-07-21T04:09:34.536096,1.00267107,.00013025,0.0525,357.5711,93.5896,193.0031,0,U,61503,999,716,0,-.24E-5,0
DSN-3 (KIRAMEKI-3),2024-198A,2026-07-21T04:21:38.575872,1.00271098,.00011285,0.0371,239.7407,259.4458,9.2296,0,U,61733,999,626,0,-.249E-5,0
KOREASAT 6A,2024-206A,2026-07-21T02:40:38.554176,1.00272700,.00010594,0.0276,102.0417,340.7952,12.2140,0,U,61910,999,618,0,-.361E-5,0
OPTUS-X (ADS-01),2024-212A,2026-07-21T07:00:10.231776,1.00275899,.00022064,0.0437,256.1518,243.5412,60.8085,0,U,62006,999,610,0,-.141E-5,0
GSAT-N2 (GSAT-20),2024-214A,2026-07-21T04:51:00.563904,1.00272691,.00027224,0.0592,259.8023,151.7658,28.0817,0,U,62028,999,623,0,-.19E-6,0
SXM-9,2024-234A,2026-07-21T05:44:38.702112,1.00271274,.00047456,0.0203,329.8912,351.5151,338.5870,0,U,62259,999,591,0,-.204E-5,0
TJS-12,2024-246A,2026-07-21T05:13:20.920800,1.00268133,.00019446,0.5986,302.8333,103.8613,117.0781,0,U,62374,999,590,0,-.231E-5,0
NUVIEW ALPHA,2024-252B,2026-07-21T05:50:36.718656,1.00271780,.0001301,0.0405,22.0886,72.7221,208.7511,0,U,62455,999,416,0,-.214E-5,0
AGILA,2024-252C,2026-07-20T20:41:42.520416,1.00271354,.00014489,0.0380,147.1606,334.4724,279.5863,0,U,62456,999,549,0,-.182E-5,0
NUVIEW BRAVO,2024-252D,2026-07-21T05:50:36.718656,1.00272415,.00017856,0.0678,165.6313,340.0484,157.8726,0,U,62457,999,413,0,-.214E-5,0
THURAYA-4,2025-001A,2026-07-21T06:26:55.737888,1.00272460,.000026,0.0215,77.5646,72.3689,290.1415,0,U,62483,999,451,0,.14E-5,0
SHIJIAN-25 (SJ-25),2025-002A,2026-07-20T16:21:00.673056,1.00277224,.0050815,5.1911,60.9512,176.6989,73.1922,0,U,62485,999,569,0,-.354E-5,0
